NORAD_CAT_ID,OBJECT_NAME,OBJECT_TYPE,EPOCH,MEAN_MOTION,ECCENTRICITY,INCLINATION,RA_OF_ASC_NODE,ARG_OF_PERICENTER,MEAN_ANOMALY,BSTAR,MEAN_MOTION_DOT,MEAN_MOTION_DDOT,TLE_LINE0,TLE_LINE1,TLE_LINE2,SEMIMAJOR_AXIS,PERIOD,APOGEE,PERIGEE,DECAYED
52678.0,STARLINK-4074,PAYLOAD,2022-11-08 01:48:39,15.08838917,0.0002369,53.2173,210.2,39.1417,320.9746,0.00028057,4.18e-05,0.0,0 STARLINK-4074,1 52678U 22053Y   22312.07545289  .00004180  00000-0  28057-3 0  9998,2 52678  53.2173 210.2000 0002369  39.1417 320.9746 15.08838917 26921,6917.884,95.438,541.388,538.11,0.0
52678.0,STARLINK-4074,PAYLOAD,2022-11-08 22:28:37,15.08868158,0.0002383,53.2172,206.3339,39.7402,320.3764,0.00021021,3.061e-05,0.0,0 STARLINK-4074,1 52678U 22053Y   22312.93655088  .00003061  00000-0  21021-3 0  9993,2 52678  53.2172 206.3339 0002383  39.7402 320.3764 15.08868158 27056,6917.794,95.436,541.308,538.011,0.0
52678.0,STARLINK-4074,PAYLOAD,2022-11-09 09:36:20,15.08855476,0.000245,53.2157,204.2511,38.1612,321.9553,0.00016292,2.307e-05,0.0,0 STARLINK-4074,1 52678U 22053Y   22313.40023592  .00002307  00000-0  16292-3 0  9991,2 52678  53.2157 204.2511 0002450  38.1612 321.9553 15.08855476 27129,6917.833000000001,95.437,541.393,538.003,0.0
52678.0,STARLINK-4074,PAYLOAD,2022-11-09 12:47:06,15.08853746,0.000238,53.2155,203.6638,52.2273,307.8935,5.290000000000001e-05,5.54e-06,0.0,0 STARLINK-4074,1 52678U 22053Y   22313.53271596  .00000554  00000-0  52900-4 0  9993,2 52678  53.2155 203.6638 0002380  52.2273 307.8935 15.08853746 27576,6917.8380000000025,95.437,541.35,538.057,0.0
52678.0,STARLINK-4074,PAYLOAD,2022-11-09 20:44:04,15.08809069,0.0002321,53.2162,202.1715,37.2058,322.9095,-0.00062016,-0.00010137,0.0,0 STARLINK-4074,1 52678U 22053Y   22313.86394129 -.00010137  00000-0 -62016-3 0  9995,2 52678  53.2162 202.1715 0002321  37.2058 322.9095 15.08809069 27623,6917.975,95.44,541.446,538.234,0.0
52678.0,STARLINK-4074,PAYLOAD,2022-11-10 01:30:13,15.088134099999998,0.0002232,53.2172,201.2784,38.7004,321.4148,-0.00066421,-0.00010836,0.0,0 STARLINK-4074,1 52678U 22053Y   22314.06265526 -.00010836  00000-0 -66421-3 0  9996,2 52678  53.2172 201.2784 0002232  38.7004 321.4148 15.08813410 27222,6917.962,95.439,541.371,538.283,0.0
52678.0,STARLINK-4074,PAYLOAD,2022-11-10 11:02:32,15.08816874,0.0002272,53.2151,199.4957,39.3009,320.8148,-0.00046485,-7.674e-05,0.0,0 STARLINK-4074,1 52678U 22053Y   22314.46009851 -.00007674  00000-0 -46485-3 0  9991,2 52678  53.2151 199.4957 0002272  39.3009 320.8148 15.08816874 27719,6917.951,95.439,541.388,538.244,0.0
52678.0,STARLINK-4074,PAYLOAD,2022-11-10 20:34:51,15.08825168,0.0002316,53.2157,197.7122,41.0791,319.0375,-0.00022957,-3.939e-05,0.0,0 STARLINK-4074,1 52678U 22053Y   22314.85754343 -.00003939  00000-0 -22957-3 0  9995,2 52678  53.2157 197.7122 0002316  41.0791 319.0375 15.08825168 27771,6917.926,95.438,541.393,538.189,0.0
52678.0,STARLINK-4074,PAYLOAD,2022-11-11 01:21:01,15.08822832,0.0002307,53.2151,196.8202,41.3478,318.7688,4.195e-06,-2.22e-06,0.0,0 STARLINK-4074,1 52678U 22053Y   22315.05626699 -.00000222  00000-0  41950-5 0  9997,2 52678  53.2151 196.8202 0002307  41.3478 318.7688 15.08822832 27373,6917.933000000001,95.439,541.394,538.202,0.0
52678.0,STARLINK-4074,PAYLOAD,2022-11-11 10:53:20,15.08828921,0.0002406,53.2152,195.036,40.7887,319.3285,0.00033565,5.056e-05,0.0,0 STARLINK-4074,1 52678U 22053Y   22315.45371247  .00005056  00000-0  33565-3 0  9997,2 52678  53.2152 195.0360 0002406  40.7887 319.3285 15.08828921 27866,6917.9140000000025,95.438,541.444,538.115,0.0
52678.0,STARLINK-4074,PAYLOAD,2022-11-11 17:14:53,15.08844122,0.0002327,53.2149,193.8463,41.8521,318.2648,0.00096275,0.00015069,0.0,0 STARLINK-4074,1 52678U 22053Y   22315.71867508  .00015069  00000-0  96275-3 0  9998,2 52678  53.2149 193.8463 0002327  41.8521 318.2648 15.08844122 27470,6917.868,95.437,541.3430000000002,538.123,0.0
52678.0,STARLINK-4074,PAYLOAD,2022-11-11 20:25:39,15.08849846,0.0002319,53.215,193.2515,41.7373,318.3796,0.0010401,0.00016309,0.0,0 STARLINK-4074,1 52678U 22053Y   22315.85115412  .00016309  00000-0  10401-2 0  9997,2 52678  53.2150 193.2515 0002319  41.7373 318.3796 15.08849846 27922,6917.85,95.437,541.32,538.111,0.0
52678.0,STARLINK-4074,PAYLOAD,2022-11-12 10:44:07,15.08869502,0.0002404,53.2143,190.5757,42.4617,317.6561,0.0010179,0.00015962,0.0,0 STARLINK-4074,1 52678U 22053Y   22316.44730554  .00015962  00000-0  10179-2 0  9999,2 52678  53.2143 190.5757 0002404  42.4617 317.6561 15.08869502 28010,6917.79,95.436,541.318,537.992,0.0
52678.0,STARLINK-4074,PAYLOAD,2022-11-12 17:05:39,15.08860939,0.0002396,53.2143,189.3863,42.7959,317.3219,0.0004047,6.162e-05,0.0,0 STARLINK-4074,1 52678U 22053Y   22316.71226363  .00006162  00000-0  40470-3 0  9997,2 52678  53.2143 189.3863 0002396  42.7959 317.3219 15.08860939 27624,6917.816,95.436,541.339,538.024,0.0
52678.0,STARLINK-4074,PAYLOAD,2022-11-12 21:51:48,15.08862135,0.0002393,53.2145,188.4934,43.0219,317.096,0.00031821,4.783e-05,0.0,0 STARLINK-4074,1 52678U 22053Y   22316.91098049  .00004783  00000-0  31821-3 0  9994,2 52678  53.2145 188.4934 0002393  43.0219 317.0960 15.08862135 28086,6917.813,95.436,541.3330000000002,538.0219999999998,0.0
52678.0,STARLINK-4074,PAYLOAD,2022-11-13 15:21:03,15.08845479,0.0002614,53.2144,185.2227,40.54,319.5787,0.00015868,2.238e-05,0.0,0 STARLINK-4074,1 52678U 22053Y   22317.63962206  .00002238  00000-0  15868-3 0  9995,2 52678  53.2144 185.2227 0002614  40.5400 319.5787 15.08845479 27765,6917.864000000001,95.437,541.5369999999998,537.92,0.0
52678.0,STARLINK-4074,PAYLOAD,2022-11-14 00:53:22,15.08841779,0.0002364,53.2153,183.4379,40.5829,319.5339,-3.2501e-05,-8.06e-06,0.0,0 STARLINK-4074,1 52678U 22053Y   22318.03706403 -.00000806  00000-0 -32501-4 0  9990,2 52678  53.2153 183.4379 0002364  40.5829 319.5339 15.08841779 27829,6917.875,95.437,541.375,538.105,0.0
52678.0,STARLINK-4074,PAYLOAD,2022-11-14 18:22:36,15.08846157,0.0002434,53.2154,180.168,39.5422,320.5747,0.00016325,2.311e-05,0.0,0 STARLINK-4074,1 52678U 22053Y   22318.76570276  .00002311  00000-0  16325-3 0  9993,2 52678  53.2154 180.1680 0002434  39.5422 320.5747 15.08846157 28364,6917.861999999999,95.437,541.41,538.043,0.0
52678.0,STARLINK-4074,PAYLOAD,2022-11-15 11:51:51,15.0883489,0.0002393,53.216,176.8967,38.3198,321.7964,0.00011467,1.537e-05,0.0,0 STARLINK-4074,1 52678U 22053Y   22319.49434919  .00001537  00000-0  11467-3 0  9998,2 52678  53.2160 176.8967 0002393  38.3198 321.7964 15.08834890 28479,6917.896,95.438,541.4159999999998,538.106,0.0
52678.0,STARLINK-4074,PAYLOAD,2022-11-15 19:48:47,15.0884022,0.0002361,53.2161,175.4092,40.0534,320.0631,0.00019008,2.738e-05,0.0,0 STARLINK-4074,1 52678U 22053Y   22319.82554784  .00002738  00000-0  19008-3 0  9991,2 52678  53.2161 175.4092 0002361  40.0534 320.0631 15.08840220 28098,6917.88,95.438,541.378,538.111,0.0
52678.0,STARLINK-4074,PAYLOAD,2022-11-16 13:18:02,15.08829373,0.0002397,53.2155,172.1394,40.6833,319.4338,5.9244e-05,6.54e-06,0.0,0 STARLINK-4074,1 52678U 22053Y   22320.55419282  .00000654  00000-0  59244-4 0  9998,2 52678  53.2155 172.1394 0002397  40.6833 319.4338 15.08829373 28639,6917.913000000001,95.438,541.436,538.12,0.0
52678.0,STARLINK-4074,PAYLOAD,2022-11-16 18:04:11,15.08830739,0.0002399,53.2156,171.2472,40.8093,319.3079,5.6572e-05,6.12e-06,0.0,0 STARLINK-4074,1 52678U 22053Y   22320.75291298  .00000612  00000-0  56572-4 0  9990,2 52678  53.2156 171.2472 0002399  40.8093 319.3079 15.08830739 28234,6917.909000000002,95.438,541.433,538.114,0.0
52678.0,STARLINK-4074,PAYLOAD,2022-11-16 21:14:57,15.08831443,0.0002389,53.2156,170.6523,41.2745,318.8427,5.909e-05,6.52e-06,0.0,0 STARLINK-4074,1 52678U 22053Y   22320.88539322  .00000652  00000-0  59090-4 0  9999,2 52678  53.2156 170.6523 0002389  41.2745 318.8427 15.08831443 28685,6917.906999999997,95.438,541.424,538.119,0.0
52678.0,STARLINK-4074,PAYLOAD,2022-11-17 13:08:49,15.08838388,0.0002287,53.2163,167.6785,44.1027,316.0147,9.3023e-05,1.192e-05,0.0,0 STARLINK-4074,1 52678U 22053Y   22321.54779374  .00001192  00000-0  93023-4 0  9990,2 52678  53.2163 167.6785 0002287  44.1027 316.0147 15.08838388 28786,6917.885,95.438,541.332,538.168,0.0
52678.0,STARLINK-4074,PAYLOAD,2022-11-17 14:44:12,15.08838549,0.0002298,53.2163,167.3811,43.9892,316.1282,8.993e-05,1.143e-05,0.0,0 STARLINK-4074,1 52678U 22053Y   22321.61403367  .00001143  00000-0  89930-4 0  9992,2 52678  53.2163 167.3811 0002298  43.9892 316.1282 15.08838549 28793,6917.885,95.438,541.34,538.16,0.0
52678.0,STARLINK-4074,PAYLOAD,2022-11-18 00:16:31,15.08840984,0.0002324,53.2162,165.5967,44.5487,315.5692,9.6512e-05,1.248e-05,0.0,0 STARLINK-4074,1 52678U 22053Y   22322.01147148  .00001248  00000-0  96512-4 0  9999,2 52678  53.2162 165.5967 0002324  44.5487 315.5692 15.08840984 28425,6917.877,95.437,541.35,538.135,0.0
52678.0,STARLINK-4074,PAYLOAD,2022-11-18 06:38:03,15.08842534,0.0002332,53.2163,164.4071,44.2968,315.821,6.6895e-05,7.77e-06,0.0,0 STARLINK-4074,1 52678U 22053Y   22322.27643049  .00000777  00000-0  66895-4 0  9995,2 52678  53.2163 164.4071 0002332  44.2968 315.8210 15.08842534 28893,6917.873000000001,95.437,541.351,538.124,0.0
52678.0,STARLINK-4074,PAYLOAD,2022-11-18 16:10:22,15.08834228,0.000239,53.2162,162.6226,43.5038,316.6143,0.00011654,1.567e-05,0.0,0 STARLINK-4074,1 52678U 22053Y   22322.67387699  .00001567  00000-0  11654-3 0  9995,2 52678  53.2162 162.6226 0002390  43.5038 316.6143 15.08834228 28523,6917.898,95.438,541.4159999999998,538.11,0.0
52678.0,STARLINK-4074,PAYLOAD,2022-11-19 00:07:19,15.08830255,0.0002417,53.2163,161.1359,43.7997,316.3186,6.6268e-05,7.66e-06,0.0,0 STARLINK-4074,1 52678U 22053Y   22323.00508200  .00000766  00000-0  66268-4 0  9998,2 52678  53.2163 161.1359 0002417  43.7997 316.3186 15.08830255 28576,6917.91,95.438,541.447,538.1030000000002,0.0
